NORAD_CAT_ID,OBJECT_NAME,OBJECT_TYPE,EPOCH,MEAN_MOTION,ECCENTRICITY,INCLINATION,RA_OF_ASC_NODE,ARG_OF_PERICENTER,MEAN_ANOMALY,BSTAR,MEAN_MOTION_DOT,MEAN_MOTION_DDOT,TLE_LINE0,TLE_LINE1,TLE_LINE2,SEMIMAJOR_AXIS,PERIOD,APOGEE,PERIGEE,DECAYED
52462.0,STARLINK-3903,PAYLOAD,2023-02-01 03:53:32,15.08842483,0.0001435,53.2166,103.2337,101.4399,258.6755,5.5719e-05,5.99e-06,0.0,0 STARLINK-3903,1 52462U 22049M   23032.16218123  .00000599  00000-0  55719-4 0  9994,2 52462  53.2166 103.2337 0001435 101.4399 258.6755 15.08842483 41436,6917.873,95.437,540.731,538.745,0.0
52462.0,STARLINK-3903,PAYLOAD,2023-02-01 13:25:50,15.08852467,0.0001379,53.2166,101.4496,102.7203,257.3943,0.00023494,3.454e-05,0.0,0 STARLINK-3903,1 52462U 22049M   23032.55961564  .00003454  00000-0  23494-3 0  9998,2 52462  53.2166 101.4496 0001379 102.7203 257.3943 15.08852467 41334,6917.842,95.437,540.661,538.753,0.0
52462.0,STARLINK-3903,PAYLOAD,2023-02-01 21:22:46,15.0884505,0.0001261,53.2164,99.9632,96.8269,263.2866,7.5454e-05,9.13e-06,0.0,0 STARLINK-3903,1 52462U 22049M   23032.89081760  .00000913  00000-0  75454-4 0  9997,2 52462  53.2164  99.9632 0001261  96.8269 263.2866 15.08845050 41543,6917.865,95.437,540.602,538.858,0.0
52462.0,STARLINK-3903,PAYLOAD,2023-02-02 11:41:15,15.08837433,0.0001547,53.2173,97.2877,104.9414,255.1749,-1.8087e-05,-5.76e-06,0.0,0 STARLINK-3903,1 52462U 22049M   23033.48698287 -.00000576  00000-0 -18087-4 0  9997,2 52462  53.2173  97.2877 0001547 104.9414 255.1749 15.08837433 41473,6917.888,95.438,540.823,538.683,0.0
52462.0,STARLINK-3903,PAYLOAD,2023-02-03 03:35:07,15.0882896,0.0001045,53.2173,94.314,88.2115,271.8997,-0.00010314,-1.928e-05,0.0,0 STARLINK-3903,1 52462U 22049M   23034.14938862 -.00001928  00000-0 -10314-3 0  9993,2 52462  53.2173  94.3140 0001045  88.2115 271.8997 15.08828960 41733,6917.914,95.438,540.502,539.056,0.0
52462.0,STARLINK-3903,PAYLOAD,2023-02-03 13:07:25,15.08844623,0.0001344,53.2167,92.5283,99.4054,260.709,9.0821e-05,1.158e-05,0.0,0 STARLINK-3903,1 52462U 22049M   23034.54682178  .00001158  00000-0  90821-4 0  9998,2 52462  53.2167  92.5283 0001344  99.4054 260.7090 15.08844623 41793,6917.866,95.437,540.661,538.801,0.0
52462.0,STARLINK-3903,PAYLOAD,2023-02-04 08:12:03,15.08842858,0.0001255,53.2163,88.9611,92.4285,267.6851,0.00026523,3.936e-05,0.0,0 STARLINK-3903,1 52462U 22049M   23035.34170613  .00003936  00000-0  26523-3 0  9996,2 52462  53.2163  88.9611 0001255  92.4285 267.6851 15.08842858 41916,6917.872,95.437,540.605,538.868,0.0
52462.0,STARLINK-3903,PAYLOAD,2023-02-04 12:58:12,15.08853513,0.0001251,53.2163,88.0678,101.1807,258.9326,0.00043995,6.723e-05,0.0,0 STARLINK-3903,1 52462U 22049M   23035.54042148  .00006723  00000-0  43995-3 0  9998,2 52462  53.2163  88.0678 0001251 101.1807 258.9326 15.08853513 41789,6917.839,95.437,540.57,538.839,0.0
52462.0,STARLINK-3903,PAYLOAD,2023-02-04 20:55:08,15.0883347,0.0001582,53.2167,86.5817,83.592,276.5252,1.3194e-05,-7.8e-07,0.0,0 STARLINK-3903,1 52462U 22049M   23035.87163017 -.00000078  00000-0  13194-4 0  9990,2 52462  53.2167  86.5817 0001582  83.5920 276.5252 15.08833470 41994,6917.9,95.438,540.86,538.671,0.0
52462.0,STARLINK-3903,PAYLOAD,2023-02-05 12:49:00,15.08844997,0.0001317,53.2166,83.6085,88.1492,271.9651,0.00036237,5.485e-05,0.0,0 STARLINK-3903,1 52462U 22049M   23036.53402839  .00005485  00000-0  36237-3 0  9990,2 52462  53.2166  83.6085 0001317  88.1492 271.9651 15.08844997 41931,6917.865,95.437,540.641,538.819,0.0
52462.0,STARLINK-3903,PAYLOAD,2023-02-05 14:24:23,15.08845612,0.0001354,53.2172,83.311,82.3851,277.7295,0.00043457,6.636e-05,0.0,0 STARLINK-3903,1 52462U 22049M   23036.60026897  .00006636  00000-0  43457-3 0  9995,2 52462  53.2172  83.3110 0001354  82.3851 277.7295 15.08845612 42103,6917.863,95.437,540.665,538.792,0.0
52462.0,STARLINK-3903,PAYLOAD,2023-02-06 12:39:46,15.08860843,0.0001375,53.2165,79.1471,82.0558,278.059,0.00088427,0.00013821,0.0,0 STARLINK-3903,1 52462U 22049M   23037.52762509  .00013821  00000-0  88427-3 0  9994,2 52462  53.2165  79.1471 0001375  82.0558 278.0590 15.08860843 42084,6917.817,95.436,540.633,538.73,0.0
52462.0,STARLINK-3903,PAYLOAD,2023-02-06 14:15:09,15.08866866,0.0001389,53.2164,78.8497,86.943,273.1721,0.001044,0.00016378,0.0,0 STARLINK-3903,1 52462U 22049M   23037.59386324  .00016378  00000-0  10440-2 0  9997,2 52462  53.2164  78.8497 0001389  86.9430 273.1721 15.08866866 42098,6917.798,95.436,540.624,538.702,0.0
52462.0,STARLINK-3903,PAYLOAD,2023-02-07 06:09:01,15.08852713,0.0001307,53.2169,75.8756,91.251,268.8632,0.00039488,6.004e-05,0.0,0 STARLINK-3903,1 52462U 22049M   23038.25626290  .00006004  00000-0  39488-3 0  9999,2 52462  53.2169  75.8756 0001307  91.2510 268.8632 15.08852713 42353,6917.842,95.437,540.611,538.802,0.0
52462.0,STARLINK-3903,PAYLOAD,2023-02-07 12:30:33,15.08867207,0.0001506,53.2171,74.6854,96.292,263.8244,0.00086944,0.00013586,0.0,0 STARLINK-3903,1 52462U 22049M   23038.52121804  .00013586  00000-0  86944-3 0  9992,2 52462  53.2171  74.6854 0001506  96.2920 263.8244 15.08867207 42238,6917.797,95.436,540.704,538.62,0.0
52462.0,STARLINK-3903,PAYLOAD,2023-02-07 14:05:56,15.08876618,0.0001433,53.2171,74.3881,92.7698,267.3458,0.0012264,0.00019304,0.0,0 STARLINK-3903,1 52462U 22049M   23038.58745577  .00019304  00000-0  12264-2 0  9994,2 52462  53.2171  74.3881 0001433  92.7698 267.3458 15.08876618 42408,6917.768,95.435,540.625,538.642,0.0
52462.0,STARLINK-3903,PAYLOAD,2023-02-08 07:35:11,15.08841855,0.0001288,53.2177,71.1176,107.5984,252.5149,0.00073044,0.00011357,0.0,0 STARLINK-3903,1 52462U 22049M   23039.31610199  .00011357  00000-0  73044-3 0  9991,2 52462  53.2177  71.1176 0001288 107.5984 252.5149 15.08841855 42517,6917.875,95.437,540.631,538.849,0.0
52462.0,STARLINK-3903,PAYLOAD,2023-02-09 05:50:35,15.08833259,0.0001457,53.2176,66.9538,112.6178,247.4969,0.00044593,6.815e-05,0.0,0 STARLINK-3903,1 52462U 22049M   23040.24347150  .00006815  00000-0  44593-3 0  9999,2 52462  53.2176  66.9538 0001457 112.6178 247.4969 15.08833259 42657,6917.901,95.438,540.774,538.758,0.0
52462.0,STARLINK-3903,PAYLOAD,2023-02-09 10:36:45,15.0883877,0.0001083,53.217,66.0616,100.3427,259.7687,0.0006025,9.314e-05,0.0,0 STARLINK-3903,1 52462U 22049M   23040.44219117  .00009314  00000-0  60250-3 0  9997,2 52462  53.2170  66.0616 0001083 100.3427 259.7687 15.08838770 42527,6917.884,95.438,540.498,539.0,0.0
52462.0,STARLINK-3903,PAYLOAD,2023-02-09 18:33:41,15.08830577,0.0001243,53.2169,64.5766,100.4531,259.6601,0.00025628,3.792e-05,0.0,0 STARLINK-3903,1 52462U 22049M   23040.77339545  .00003792  00000-0  25628-3 0  9995,2 52462  53.2169  64.5766 0001243 100.4531 259.6601 15.08830577 42576,6917.909,95.438,540.634,538.914,0.0
52462.0,STARLINK-3903,PAYLOAD,2023-02-10 13:38:18,15.08862342,0.0001303,53.2159,61.0085,85.1401,274.974,0.0018252,0.00028897,0.0,0 STARLINK-3903,1 52462U 22049M   23041.56827430  .00028897  00000-0  18252-2 0  9995,2 52462  53.2159  61.0085 0001303  85.1401 274.9740 15.08862342 42853,6917.812,95.436,540.578,538.776,0.0
52462.0,STARLINK-3903,PAYLOAD,2023-02-11 18:15:15,15.08857309,0.0001252,53.2181,55.6545,100.3434,259.7699,0.00082686,0.00012902,0.0,0 STARLINK-3903,1 52462U 22049M   23042.76059101  .00012902  00000-0  82686-3 0  9993,2 52462  53.2181  55.6545 0001252 100.3434 259.7699 15.08857309 43039,6917.827,95.436,540.559,538.826,0.0
52462.0,STARLINK-3903,PAYLOAD,2023-02-12 06:58:20,15.08849416,0.0001485,53.2157,53.2763,104.9828,255.1329,0.0018977,0.00030051,0.0,0 STARLINK-3903,1 52462U 22049M   23043.29051436  .00030051  00000-0  18977-2 0  9991,2 52462  53.2157  53.2763 0001485 104.9828 255.1329 15.08849416 43112,6917.852,95.437,540.744,538.689,0.0
52462.0,STARLINK-3903,PAYLOAD,2023-02-12 11:44:29,15.08853738,0.0001676,53.2163,52.3818,108.2721,251.8453,0.0015803,0.00024962,0.0,0 STARLINK-3903,1 52462U 22049M   23043.48923309  .00024962  00000-0  15803-2 0  9998,2 52462  53.2163  52.3818 0001676 108.2721 251.8453 15.08853738 42988,6917.838,95.437,540.863,538.544,0.0
52462.0,STARLINK-3903,PAYLOAD,2023-02-13 00:27:35,15.0884077,0.0001474,53.219,50.0054,100.8998,259.216,0.001229,0.00019326,0.0,0 STARLINK-3903,1 52462U 22049M   23044.01916040  .00019326  00000-0  12290-2 0  9997,2 52462  53.2190  50.0054 0001474 100.8998 259.2160 15.08840770 43222,6917.878,95.438,540.763,538.723,0.0
52462.0,STARLINK-3903,PAYLOAD,2023-02-13 06:49:08,15.08848068,0.0001623,53.2185,48.817,93.0652,267.0526,0.0017545,0.00027751,0.0,0 STARLINK-3903,1 52462U 22049M   23044.28412072  .00027751  00000-0  17545-2 0  9991,2 52462  53.2185  48.8170 0001623  93.0652 267.0526 15.08848068 43104,6917.856,95.437,540.843,538.598,0.0
52462.0,STARLINK-3903,PAYLOAD,2023-02-14 06:39:55,15.08867529,0.0001617,53.2179,44.3533,94.0929,266.0248,0.0019372,0.00030701,0.0,0 STARLINK-3903,1 52462U 22049M   23045.27772106  .00030701  00000-0  19372-2 0  9997,2 52462  53.2179  44.3533 0001617  94.0929 266.0248 15.08867529 43419,6917.796,95.436,540.78,538.543,0.0
52462.0,STARLINK-3903,PAYLOAD,2023-02-14 11:26:04,15.08861193,0.0001475,53.2182,43.4622,92.0954,268.0207,0.0011376,0.00017874,0.0,0 STARLINK-3903,1 52462U 22049M   23045.47643893  .00017874  00000-0  11376-2 0  9991,2 52462  53.2182  43.4622 0001475  92.0954 268.0207 15.08861193 43283,6917.816,95.436,540.701,538.66,0.0
52462.0,STARLINK-3903,PAYLOAD,2023-02-15 04:55:19,15.08825891,0.0002053,53.2168,40.1925,88.5339,271.5888,0.0021044,0.0003335,0.0,0 STARLINK-3903,1 52462U 22049M   23046.20508506  .00033350  00000-0  21044-2 0  9994,2 52462  53.2168  40.1925 0002053  88.5339 271.5888 15.08825891 43556,6917.924,95.438,541.209,538.368,0.0
52462.0,STARLINK-3903,PAYLOAD,2023-02-15 16:03:00,15.08859943,0.0001436,53.2176,38.113,81.4233,278.6922,0.0011413,0.00017932,0.0,0 STARLINK-3903,1 52462U 22049M   23046.66875878  .00017932  00000-0  11413-2 0  9990,2 52462  53.2176  38.1130 0001436  81.4233 278.6922 15.08859943 43461,6917.819,95.436,540.678,538.691,0.0
